{
  "type": "FeatureCollection",
  "features": [
    {
      "type": "Feature",
      "geometry": {
        "type": "Polygon",
        "coordinates": [
          [
            [
              -75.5709171,
              6.222055745274883
            ],
            [
              -75.56938381093646,
              6.2219558379786735
            ],
            [
              -75.5678767568739,
              6.221657825531582
            ],
            [
              -75.56642172392517,
              6.2211668070092045
            ],
            [
              -75.56504360810744,
              6.220491183874593
            ],
            [
              -75.56376598936444,
              6.219642516226901
            ],
            [
              -75.56261072810706,
              6.218635325004873
            ],
            [
              -75.56159759117574,
              6.217486843529566
            ],
            [
              -75.56074391362425,
              6.216216722637441
            ],
            [
              -75.5600643021122,
              6.214846694449107
            ],
            [
              -75.55957038498096,
              6.213400200526709
            ],
            [
              -75.55927061328961,
              6.211901990782303
            ],
            [
              -75.55917011621489,
              6.2103777
            ],
            [
              -75.55927061328961,
              6.208853409217696
            ],
            [
              -75.55957038498096,
              6.20735519947329
            ],
            [
              -75.5600643021122,
              6.205908705550892
            ],
            [
              -75.56074391362425,
              6.204538677362558
            ],
            [
              -75.56159759117574,
              6.203268556470433
            ],
            [
              -75.56261072810706,
              6.202120074995126
            ],
            [
              -75.56376598936444,
              6.201112883773098
            ],
            [
              -75.56504360810744,
              6.200264216125406
            ],
            [
              -75.56642172392517,
              6.199588592990795
            ],
            [
              -75.5678767568739,
              6.199097574468417
            ],
            [
              -75.56938381093646,
              6.198799562021326
            ],
            [
              -75.5709171,
              6.198699654725116
            ],
            [
              -75.57245038906355,
              6.198799562021326
            ],
            [
              -75.5739574431261,
              6.199097574468417
            ],
            [
              -75.57541247607483,
              6.199588592990795
            ],
            [
              -75.57679059189256,
              6.200264216125406
            ],
            [
              -75.57806821063556,
              6.201112883773098
            ],
            [
              -75.57922347189294,
              6.202120074995126
            ],
            [
              -75.58023660882426,
              6.203268556470433
            ],
            [
              -75.58109028637575,
              6.204538677362558
            ],
            [
              -75.58176989788781,
              6.205908705550892
            ],
            [
              -75.58226381501905,
              6.20735519947329
            ],
            [
              -75.58256358671039,
              6.208853409217696
            ],
            [
              -75.58266408378512,
              6.2103777
            ],
            [
              -75.58256358671039,
              6.211901990782303
            ],
            [
              -75.58226381501905,
              6.213400200526709
            ],
            [
              -75.58176989788781,
              6.214846694449107
            ],
            [
              -75.58109028637575,
              6.216216722637441
            ],
            [
              -75.58023660882426,
              6.217486843529566
            ],
            [
              -75.57922347189294,
              6.218635325004873
            ],
            [
              -75.57806821063556,
              6.219642516226901
            ],
            [
              -75.57679059189256,
              6.220491183874593
            ],
            [
              -75.57541247607483,
              6.2211668070092045
            ],
            [
              -75.5739574431261,
              6.221657825531582
            ],
            [
              -75.57245038906355,
              6.2219558379786735
            ],
            [
              -75.5709171,
              6.222055745274883
            ]
          ]
        ]
      },
      "properties": {
        "name": "El Poblado",
        "city": "Medellin",
        "country": "Colombia",
        "status": "yellow",
        "rent_usd": "900",
        "safety": "good",
        "noise": "loud",
        "walkability": "high",
        "vibe": "expat/nightlife",
        "verdict": "maybe",
        "notes": "Safe and green but pricey and touristy",
        "lat": "6.2103777",
        "lon": "-75.5709171",
        "radius_m": "1300"
      }
    },
    {
      "type": "Feature",
      "geometry": {
        "type": "Polygon",
        "coordinates": [
          [
            [
              -75.5958328,
              6.254575856449875
            ],
            [
              -75.59418146619795,
              6.254468263977033
            ],
            [
              -75.59255838717512,
              6.254147327495551
            ],
            [
              -75.59099133426353,
              6.253618538317605
            ],
            [
              -75.58950712017301,
              6.2528909441726395
            ],
            [
              -75.58813114021815,
              6.251976994398201
            ],
            [
              -75.58688693779744,
              6.250892326928326
            ],
            [
              -75.5857958015593,
              6.249655500724149
            ],
            [
              -75.58487640114726,
              6.248287678224938
            ],
            [
              -75.58414446775727,
              6.246812263252885
            ],
            [
              -75.58361252497257,
              6.245254500567226
            ],
            [
              -75.58328967448169,
              6.243641043919404
            ],
            [
              -75.58318144034604,
              6.2419995
            ],
            [
              -75.58328967448169,
              6.240357956080596
            ],
            [
              -75.58361252497257,
              6.238744499432775
            ],
            [
              -75.58414446775727,
              6.237186736747116
            ],
            [
              -75.58487640114726,
              6.235711321775063
            ],
            [
              -75.5857958015593,
              6.234343499275852
            ],
            [
              -75.58688693779744,
              6.233106673071675
            ],
            [
              -75.58813114021815,
              6.2320220056018
            ],
            [
              -75.58950712017301,
              6.231108055827361
            ],
            [
              -75.59099133426353,
              6.230380461682396
            ],
            [
              -75.59255838717512,
              6.2298516725044495
            ],
            [
              -75.59418146619795,
              6.2295307360229675
            ],
            [
              -75.5958328,
              6.229423143550126
            ],
            [
              -75.59748413380204,
              6.2295307360229675
            ],
            [
              -75.59910721282488,
              6.2298516725044495
            ],
            [
              -75.60067426573646,
              6.230380461682396
            ],
            [
              -75.60215847982698,
              6.231108055827361
            ],
            [
              -75.60353445978184,
              6.2320220056018
            ],
            [
              -75.60477866220255,
              6.233106673071675
            ],
            [
              -75.6058697984407,
              6.234343499275852
            ],
            [
              -75.60678919885274,
              6.235711321775063
            ],
            [
              -75.60752113224272,
              6.237186736747116
            ],
            [
              -75.60805307502743,
              6.238744499432775
            ],
            [
              -75.6083759255183,
              6.240357956080596
            ],
            [
              -75.60848415965395,
              6.2419995
            ],
            [
              -75.6083759255183,
              6.243641043919404
            ],
            [
              -75.60805307502743,
              6.245254500567226
            ],
            [
              -75.60752113224272,
              6.246812263252885
            ],
            [
              -75.60678919885274,
              6.248287678224938
            ],
            [
              -75.6058697984407,
              6.249655500724149
            ],
            [
              -75.60477866220255,
              6.250892326928326
            ],
            [
              -75.60353445978184,
              6.251976994398201
            ],
            [
              -75.60215847982698,
              6.2528909441726395
            ],
            [
              -75.60067426573646,
              6.253618538317605
            ],
            [
              -75.59910721282488,
              6.254147327495551
            ],
            [
              -75.59748413380204,
              6.254468263977033
            ],
            [
              -75.5958328,
              6.254575856449875
            ]
          ]
        ]
      },
      "properties": {
        "name": "Laureles",
        "city": "Medellin",
        "country": "Colombia",
        "status": "green",
        "rent_usd": "650",
        "safety": "good",
        "noise": "moderate",
        "walkability": "high",
        "vibe": "local/leafy",
        "verdict": "shortlist",
        "notes": "Grid streets, good cafes, quieter than Poblado",
        "lat": "6.2419995",
        "lon": "-75.5958328",
        "radius_m": "1400"
      }
    },
    {
      "type": "Feature",
      "geometry": {
        "type": "Polygon",
        "coordinates": [
          [
            [
              -75.5906,
              6.184472978799856
            ],
            [
              -75.58871301888034,
              6.184350015973752
            ],
            [
              -75.58685832453081,
              6.183983231423486
            ],
            [
              -75.58506765128595,
              6.183378900934406
            ],
            [
              -75.58337163806145,
              6.18254736476873
            ],
            [
              -75.58179930411379,
              6.1815028507408005
            ],
            [
              -75.58037755251276,
              6.180263230775228
            ],
            [
              -75.57913070982244,
              6.178849715113312
            ],
            [
              -75.57808010986693,
              6.177286489399928
            ],
            [
              -75.57724372870277,
              6.175600300860439
            ],
            [
              -75.57663587704357,
              6.1738200006482575
            ],
            [
              -75.57626695539975,
              6.171976050193605
            ],
            [
              -75.57614327612289,
              6.1701
            ],
            [
              -75.57626695539975,
              6.168223949806395
            ],
            [
              -75.57663587704357,
              6.166379999351742
            ],
            [
              -75.57724372870277,
              6.16459969913956
            ],
            [
              -75.57808010986693,
              6.162913510600071
            ],
            [
              -75.57913070982244,
              6.161350284886687
            ],
            [
              -75.58037755251276,
              6.159936769224771
            ],
            [
              -75.58179930411379,
              6.158697149259199
            ],
            [
              -75.58337163806145,
              6.157652635231269
            ],
            [
              -75.58506765128595,
              6.156821099065594
            ],
            [
              -75.58685832453081,
              6.156216768576513
            ],
            [
              -75.58871301888034,
              6.155849984026247
            ],
            [
              -75.5906,
              6.155727021200144
            ],
            [
              -75.59248698111965,
              6.155849984026247
            ],
            [
              -75.59434167546918,
              6.156216768576513
            ],
            [
              -75.59613234871404,
              6.156821099065594
            ],
            [
              -75.59782836193854,
              6.157652635231269
            ],
            [
              -75.5994006958862,
              6.158697149259199
            ],
            [
              -75.60082244748723,
              6.159936769224771
            ],
            [
              -75.60206929017755,
              6.161350284886687
            ],
            [
              -75.60311989013306,
              6.162913510600071
            ],
            [
              -75.60395627129722,
              6.16459969913956
            ],
            [
              -75.60456412295642,
              6.166379999351742
            ],
            [
              -75.60493304460024,
              6.168223949806395
            ],
            [
              -75.6050567238771,
              6.1701
            ],
            [
              -75.60493304460024,
              6.171976050193605
            ],
            [
              -75.60456412295642,
              6.1738200006482575
            ],
            [
              -75.60395627129722,
              6.175600300860439
            ],
            [
              -75.60311989013306,
              6.177286489399928
            ],
            [
              -75.60206929017755,
              6.178849715113312
            ],
            [
              -75.60082244748723,
              6.180263230775228
            ],
            [
              -75.5994006958862,
              6.1815028507408005
            ],
            [
              -75.59782836193854,
              6.18254736476873
            ],
            [
              -75.59613234871404,
              6.183378900934406
            ],
            [
              -75.59434167546918,
              6.183983231423486
            ],
            [
              -75.59248698111965,
              6.184350015973752
            ],
            [
              -75.5906,
              6.184472978799856
            ]
          ]
        ]
      },
      "properties": {
        "name": "Envigado",
        "city": "Medellin",
        "country": "Colombia",
        "status": "green",
        "rent_usd": "600",
        "safety": "very good",
        "noise": "quiet",
        "walkability": "medium",
        "vibe": "family/local",
        "verdict": "shortlist",
        "notes": "Feels like its own town, relaxed pace",
        "lat": "6.1701",
        "lon": "-75.5906",
        "radius_m": "1600"
      }
    },
    {
      "type": "Feature",
      "geometry": {
        "type": "Polygon",
        "coordinates": [
          [
            [
              -75.5667115,
              6.2595168117499105
            ],
            [
              -75.56553195662593,
              6.259439959983595
            ],
            [
              -75.56437259556603,
              6.259210719639679
            ],
            [
              -75.56325325380945,
              6.258833013084003
            ],
            [
              -75.562193083604,
              6.258313302980457
            ],
            [
              -75.56121022475584,
              6.257660481713001
            ],
            [
              -75.56032149425234,
              6.256885719234518
            ],
            [
              -75.55954209851882,
              6.25600227194582
            ],
            [
              -75.55888537323239,
              6.255025255874955
            ],
            [
              -75.55836255514475,
              6.253971388037775
            ],
            [
              -75.55798258981837,
              6.252858700405161
            ],
            [
              -75.55775197856529,
              6.251706231371003
            ],
            [
              -75.557674667208,
              6.2505337
            ],
            [
              -75.55775197856529,
              6.249361168628997
            ],
            [
              -75.55798258981837,
              6.248208699594839
            ],
            [
              -75.55836255514475,
              6.247096011962225
            ],
            [
              -75.55888537323239,
              6.246042144125045
            ],
            [
              -75.55954209851882,
              6.24506512805418
            ],
            [
              -75.56032149425234,
              6.244181680765482
            ],
            [
              -75.56121022475584,
              6.243406918287
            ],
            [
              -75.562193083604,
              6.242754097019543
            ],
            [
              -75.56325325380945,
              6.242234386915997
            ],
            [
              -75.56437259556603,
              6.241856680360321
            ],
            [
              -75.56553195662593,
              6.241627440016405
            ],
            [
              -75.5667115,
              6.24155058825009
            ],
            [
              -75.56789104337406,
              6.241627440016405
            ],
            [
              -75.56905040443397,
              6.241856680360321
            ],
            [
              -75.57016974619054,
              6.242234386915997
            ],
            [
              -75.57122991639599,
              6.242754097019543
            ],
            [
              -75.57221277524415,
              6.243406918287
            ],
            [
              -75.57310150574766,
              6.244181680765482
            ],
            [
              -75.57388090148117,
              6.24506512805418
            ],
            [
              -75.57453762676761,
              6.246042144125045
            ],
            [
              -75.57506044485524,
              6.247096011962225
            ],
            [
              -75.57544041018163,
              6.248208699594839
            ],
            [
              -75.5756710214347,
              6.249361168628997
            ],
            [
              -75.57574833279199,
              6.2505337
            ],
            [
              -75.5756710214347,
              6.251706231371003
            ],
            [
              -75.57544041018163,
              6.252858700405161
            ],
            [
              -75.57506044485524,
              6.253971388037775
            ],
            [
              -75.57453762676761,
              6.255025255874955
            ],
            [
              -75.57388090148117,
              6.25600227194582
            ],
            [
              -75.57310150574766,
              6.256885719234518
            ],
            [
              -75.57221277524415,
              6.257660481713001
            ],
            [
              -75.57122991639599,
              6.258313302980457
            ],
            [
              -75.57016974619054,
              6.258833013084003
            ],
            [
              -75.56905040443397,
              6.259210719639679
            ],
            [
              -75.56789104337406,
              6.259439959983595
            ],
            [
              -75.5667115,
              6.2595168117499105
            ]
          ]
        ]
      },
      "properties": {
        "name": "La Candelaria",
        "city": "Medellin",
        "country": "Colombia",
        "status": "red",
        "rent_usd": "400",
        "safety": "poor",
        "noise": "very loud",
        "walkability": "high",
        "vibe": "historic/chaotic",
        "verdict": "avoid",
        "notes": "El Centro. Busy in the day, avoid at night",
        "lat": "6.2505337",
        "lon": "-75.5667115",
        "radius_m": "1000"
      }
    },
    {
      "type": "Feature",
      "geometry": {
        "type": "Polygon",
        "coordinates": [
          [
            [
              -75.596677,
              6.245112056449874
            ],
            [
              -75.59502569600824,
              6.245004463977033
            ],
            [
              -75.5934026462856,
              6.244683527495551
            ],
            [
              -75.59183562166284,
              6.244154738317604
            ],
            [
              -75.5903514343657,
              6.243427144172639
            ],
            [
              -75.58897547925035,
              6.2425131943982
            ],
            [
              -75.5877312992903,
              6.241428526928325
            ],
            [
              -75.58664018274959,
              6.240191700724148
            ],
            [
              -75.58572079893479,
              6.238823878224937
            ],
            [
              -75.58498887875783,
              6.237348463252884
            ],
            [
              -75.5844569455759,
              6.235790700567225
            ],
            [
              -75.58413410091319,
              6.234177243919404
            ],
            [
              -75.5840258687314,
              6.2325357
            ],
            [
              -75.58413410091319,
              6.230894156080596
            ],
            [
              -75.5844569455759,
              6.229280699432774
            ],
            [
              -75.58498887875783,
              6.227722936747115
            ],
            [
              -75.58572079893479,
              6.226247521775062
            ],
            [
              -75.58664018274959,
              6.224879699275851
            ],
            [
              -75.5877312992903,
              6.223642873071674
            ],
            [
              -75.58897547925035,
              6.222558205601799
            ],
            [
              -75.5903514343657,
              6.221644255827361
            ],
            [
              -75.59183562166284,
              6.220916661682395
            ],
            [
              -75.5934026462856,
              6.220387872504449
            ],
            [
              -75.59502569600824,
              6.220066936022967
            ],
            [
              -75.596677,
              6.2199593435501255
            ],
            [
              -75.59832830399176,
              6.220066936022967
            ],
            [
              -75.5999513537144,
              6.220387872504449
            ],
            [
              -75.60151837833716,
              6.220916661682395
            ],
            [
              -75.6030025656343,
              6.221644255827361
            ],
            [
              -75.60437852074965,
              6.222558205601799
            ],
            [
              -75.6056227007097,
              6.223642873071674
            ],
            [
              -75.60671381725041,
              6.224879699275851
            ],
            [
              -75.60763320106521,
              6.226247521775062
            ],
            [
              -75.60836512124217,
              6.227722936747115
            ],
            [
              -75.6088970544241,
              6.229280699432774
            ],
            [
              -75.60921989908681,
              6.230894156080596
            ],
            [
              -75.6093281312686,
              6.2325357
            ],
            [
              -75.60921989908681,
              6.234177243919404
            ],
            [
              -75.6088970544241,
              6.235790700567225
            ],
            [
              -75.60836512124217,
              6.237348463252884
            ],
            [
              -75.60763320106521,
              6.238823878224937
            ],
            [
              -75.60671381725041,
              6.240191700724148
            ],
            [
              -75.6056227007097,
              6.241428526928325
            ],
            [
              -75.60437852074965,
              6.2425131943982
            ],
            [
              -75.6030025656343,
              6.243427144172639
            ],
            [
              -75.60151837833716,
              6.244154738317604
            ],
            [
              -75.5999513537144,
              6.244683527495551
            ],
            [
              -75.59832830399176,
              6.245004463977033
            ],
            [
              -75.596677,
              6.245112056449874
            ]
          ]
        ]
      },
      "properties": {
        "name": "Belen",
        "city": "Medellin",
        "country": "Colombia",
        "status": "yellow",
        "rent_usd": "500",
        "safety": "fair",
        "noise": "moderate",
        "walkability": "medium",
        "vibe": "local/residential",
        "verdict": "maybe",
        "notes": "Cheaper, less touristy, mixed safety by block",
        "lat": "6.2325357",
        "lon": "-75.5966770",
        "radius_m": "1400"
      }
    }
  ]
}